[{"OBJECT_NAME":"OPTICUBE 04","OBJECT_ID":"2016-067D","EPOCH":"2026-03-09T12:14:28.758048","MEAN_MOTION":15.09188378,"ECCENTRICITY":0.00170901,"INCLINATION":98.0811,"RA_OF_ASC_NODE":275.5525,"ARG_OF_PERICENTER":94.6311,"MEAN_ANOMALY":265.6869,"EPHEMERIS_TYPE":0,"CLASSIFICATION_TYPE":"U","NORAD_CAT_ID":41851,"ELEMENT_SET_NO":999,"REV_AT_EPOCH":51013,"BSTAR":0.00024566739,"MEAN_MOTION_DOT":3.845e-5,"MEAN_MOTION_DDOT":0},{"OBJECT_NAME":"STARLINK-35052","OBJECT_ID":"2025-200W","EPOCH":"2026-03-09T18:22:26.334912","MEAN_MOTION":15.05644096,"ECCENTRICITY":2.41e-5,"INCLINATION":97.6015,"RA_OF_ASC_NODE":139.8947,"ARG_OF_PERICENTER":162.8845,"MEAN_ANOMALY":197.239,"EPHEMERIS_TYPE":0,"CLASSIFICATION_TYPE":"U","NORAD_CAT_ID":65540,"ELEMENT_SET_NO":999,"REV_AT_EPOCH":2906,"BSTAR":9.8704499e-5,"MEAN_MOTION_DOT":1.364e-5,"MEAN_MOTION_DDOT":0}]
