OPTICUBE 04             
1 41851U 16067D   26068.51005515  .00003771  00000+0  24102-3 0  9992
2 41851  98.0811 275.5525 0017089  94.6311 265.6869 15.09188144510131
STARLINK-35052          
1 65540U 25200W   26068.76558257  .00001364  00000+0  98704-4 0  9991
2 65540  97.6015 139.8947 0000241 162.8845 197.2390 15.05644096 29060
